start=new Date('2022-05-08T00:00:00.000Z').valueOf();
sats=[{"INCLINATION":"53.0546","RA_OF_ASC_NODE":"290.0901","DECAY_DATE":null,"OBJECT_NAME":"STARLINK-1574","MEAN_ELEMENT_THEORY":"SGP4","MEAN_MOTION_DDOT":"0.0000000000000","TLE_LINE2":"2 46062  53.0546 290.0901 0001318  60.8984 299.2137 15.06437742 97189","SITE":"AFETR","LAUNCH_DATE":"2020-08-07","MEAN_MOTION":"15.06437742","APOAPSIS":"548.011","PERIAPSIS":"546.185","CLASSIFICATION_TYPE":"U","REF_FRAME":"TEME","GP_ID":"202934827","ELEMENT_SET_NO":"999","NORAD_CAT_ID":"46062","BSTAR":"-0.00058023000000","EPHEMERIS_TYPE":"0","SEMIMAJOR_AXIS":"6925.233","TLE_LINE1":"1 46062U 20055AM  22127.76806527 -.00008922  00000-0 -58023-3 0  9999","RCS_SIZE":"LARGE","REV_AT_EPOCH":"9718","ARG_OF_PERICENTER":"60.8984","OBJECT_TYPE":"PAYLOAD","PERIOD":"95.590","TIME_SYSTEM":"UTC","EPOCH":"2022-05-07T18:26:00.839328","OBJECT_ID":"2020-055AM","FILE":"3434251","CENTER_NAME":"EARTH","MEAN_MOTION_DOT":"-0.00008922","MEAN_ANOMALY":"299.2137","ECCENTRICITY":"0.00013180","COUNTRY_CODE":"US"},{"ECCENTRICITY":"0.00014630","MEAN_ANOMALY":"280.3481","COUNTRY_CODE":"US","MEAN_MOTION_DOT":"-0.00001032","FILE":"3434251","OBJECT_ID":"2020-055AN","CENTER_NAME":"EARTH","TIME_SYSTEM":"UTC","EPOCH":"2022-05-07T19:56:16.368000","PERIOD":"95.593","OBJECT_TYPE":"PAYLOAD","ARG_OF_PERICENTER":"79.7673","RCS_SIZE":"LARGE","REV_AT_EPOCH":"9719","SEMIMAJOR_AXIS":"6925.393","TLE_LINE1":"1 46063U 20055AN  22127.83074500 -.00001032  00000-0 -50387-4 0  9997","BSTAR":"-0.00005038700000","EPHEMERIS_TYPE":"0","ELEMENT_SET_NO":"999","NORAD_CAT_ID":"46063","GP_ID":"202934830","CLASSIFICATION_TYPE":"U","REF_FRAME":"TEME","PERIAPSIS":"546.245","APOAPSIS":"548.271","LAUNCH_DATE":"2020-08-07","MEAN_MOTION":"15.06385404","SITE":"AFETR","MEAN_MOTION_DDOT":"0.0000000000000","MEAN_ELEMENT_THEORY":"SGP4","TLE_LINE2":"2 46063  53.0565 289.8164 0001463  79.7673 280.3481 15.06385404 97194","OBJECT_NAME":"STARLINK-1577","DECAY_DATE":null,"RA_OF_ASC_NODE":"289.8164","INCLINATION":"53.0565"},{"MEAN_MOTION":"15.06401357","LAUNCH_DATE":"2020-08-07","APOAPSIS":"548.398","PERIAPSIS":"546.020","REF_FRAME":"TEME","CLASSIFICATION_TYPE":"U","GP_ID":"202935366","NORAD_CAT_ID":"46064","ELEMENT_SET_NO":"999","INCLINATION":"53.0550","RA_OF_ASC_NODE":"290.2599","DECAY_DATE":null,"OBJECT_NAME":"STARLINK-1583","TLE_LINE2":"2 46064  53.0550 290.2599 0001717  62.9805 297.1359 15.06401357 97196","MEAN_ELEMENT_THEORY":"SGP4","MEAN_MOTION_DDOT":"0.0000000000000","SITE":"AFETR","PERIOD":"95.592","TIME_SYSTEM":"UTC","EPOCH":"2022-05-07T17:32:56.591520","CENTER_NAME":"EARTH","FILE":"3434252","OBJECT_ID":"2020-055AP","MEAN_MOTION_DOT":"0.00001532","COUNTRY_CODE":"US","ECCENTRICITY":"0.00017170","MEAN_ANOMALY":"297.1359","EPHEMERIS_TYPE":"0","BSTAR":"0.00012173000000","TLE_LINE1":"1 46064U 20055AP  22127.73121055  .00001532  00000-0  12173-3 0  9998","SEMIMAJOR_AXIS":"6925.344","REV_AT_EPOCH":"9719","RCS_SIZE":"LARGE","ARG_OF_PERICENTER":"62.9805","OBJECT_TYPE":"PAYLOAD"},{"PERIOD":"95.592","EPOCH":"2022-05-07T18:59:09.466656","TIME_SYSTEM":"UTC","FILE":"3434200","OBJECT_ID":"2020-055AQ","CENTER_NAME":"EARTH","MEAN_MOTION_DOT":"-0.00001089","ECCENTRICITY":"0.00014390","MEAN_ANOMALY":"289.3044","COUNTRY_CODE":"US","BSTAR":"-0.00005419000000","EPHEMERIS_TYPE":"0","SEMIMAJOR_AXIS":"6925.330","TLE_LINE1":"1 46065U 20055AQ  22127.79108179 -.00001089  00000-0 -54190-4 0  9992","RCS_SIZE":"LARGE","REV_AT_EPOCH":"9750","ARG_OF_PERICENTER":"70.8100","OBJECT_TYPE":"PAYLOAD","LAUNCH_DATE":"2020-08-07","MEAN_MOTION":"15.06406037","APOAPSIS":"548.192","PERIAPSIS":"546.199","REF_FRAME":"TEME","CLASSIFICATION_TYPE":"U","GP_ID":"202933978","ELEMENT_SET_NO":"999","NORAD_CAT_ID":"46065","INCLINATION":"53.0555","RA_OF_ASC_NODE":"269.9820","DECAY_DATE":null,"OBJECT_NAME":"STARLINK-1515","MEAN_ELEMENT_THEORY":"SGP4","MEAN_MOTION_DDOT":"0.0000000000000","TLE_LINE2":"2 46065  53.0555 269.9820 0001439  70.8100 289.3044 15.06406037 97508","SITE":"AFETR"},{"MEAN_MOTION":"15.06402640","LAUNCH_DATE":"2020-08-07","APOAPSIS":"548.285","PERIAPSIS":"546.126","CLASSIFICATION_TYPE":"U","REF_FRAME":"TEME","GP_ID":"202923693","NORAD_CAT_ID":"46066","ELEMENT_SET_NO":"999","INCLINATION":"53.0533","RA_OF_ASC_NODE":"271.1632","OBJECT_NAME":"STARLINK-1525","DECAY_DATE":null,"TLE_LINE2":"2 46066  53.0533 271.1632 0001559  61.9149 298.1998 15.06402640 97960","MEAN_ELEMENT_THEORY":"SGP4","MEAN_MOTION_DDOT":"0.0000000000000","SITE":"AFETR","PERIOD":"95.592","EPOCH":"2022-05-07T12:43:40.287360","TIME_SYSTEM":"UTC","CENTER_NAME":"EARTH","FILE":"3433971","OBJECT_ID":"2020-055AR","MEAN_MOTION_DOT":"0.00001147","COUNTRY_CODE":"US","MEAN_ANOMALY":"298.1998","ECCENTRICITY":"0.00015590","EPHEMERIS_TYPE":"0","BSTAR":"0.00009587300000","TLE_LINE1":"1 46066U 20055AR  22127.53032740  .00001147  00000-0  95873-4 0  9991","SEMIMAJOR_AXIS":"6925.340","REV_AT_EPOCH":"9796","RCS_SIZE":"LARGE","ARG_OF_PERICENTER":"61.9149","OBJECT_TYPE":"PAYLOAD"},{"NORAD_CAT_ID":"46067","ELEMENT_SET_NO":"999","CLASSIFICATION_TYPE":"U","REF_FRAME":"TEME","GP_ID":"202924441","PERIAPSIS":"546.012","MEAN_MOTION":"15.06398050","LAUNCH_DATE":"2020-08-07","APOAPSIS":"548.427","SITE":"AFETR","DECAY_DATE":null,"OBJECT_NAME":"STARLINK-1529","TLE_LINE2":"2 46067  53.0524 271.7358 0001743  72.2276 287.8903 15.06398050 97952","MEAN_ELEMENT_THEORY":"SGP4","MEAN_MOTION_DDOT":"0.0000000000000","INCLINATION":"53.0524","RA_OF_ASC_NODE":"271.7358","MEAN_MOTION_DOT":"-0.00000340","COUNTRY_CODE":"US","ECCENTRICITY":"0.00017430","MEAN_ANOMALY":"287.8903","CENTER_NAME":"EARTH","OBJECT_ID":"2020-055AS","FILE":"3433971","EPOCH":"2022-05-07T09:37:54.475680","TIME_SYSTEM":"UTC","PERIOD":"95.592","ARG_OF_PERICENTER":"72.2276","OBJECT_TYPE":"PAYLOAD","REV_AT_EPOCH":"9795","RCS_SIZE":"LARGE","EPHEMERIS_TYPE":"0","BSTAR":"-0.00000393590000","TLE_LINE1":"1 46067U 20055AS  22127.40132495 -.00000340  00000-0 -39359-5 0  9990","SEMIMAJOR_AXIS":"6925.355"},{"CENTER_NAME":"EARTH","FILE":"3433971","OBJECT_ID":"2020-055AT","MEAN_MOTION_DOT":"-0.00000467","COUNTRY_CODE":"US","MEAN_ANOMALY":"300.6864","ECCENTRICITY":"0.00018120","PERIOD":"95.593","TIME_SYSTEM":"UTC","EPOCH":"2022-05-07T13:04:54.563808","REV_AT_EPOCH":"9797","RCS_SIZE":"LARGE","ARG_OF_PERICENTER":"59.4303","OBJECT_TYPE":"PAYLOAD","EPHEMERIS_TYPE":"0","BSTAR":"-0.00001242600000","TLE_LINE1":"1 46068U 20055AT  22127.54507597 -.00000467  00000-0 -12426-4 0  9990","SEMIMAJOR_AXIS":"6925.376","CLASSIFICATION_TYPE":"U","REF_FRAME":"TEME","GP_ID":"202923191","NORAD_CAT_ID":"46068","ELEMENT_SET_NO":"999","MEAN_MOTION":"15.06391205","LAUNCH_DATE":"2020-08-07","APOAPSIS":"548.495","PERIAPSIS":"545.986","DECAY_DATE":null,"OBJECT_NAME":"STARLINK-1532","TLE_LINE2":"2 46068  53.0546 271.0871 0001812  59.4303 300.6864 15.06391205 97972","MEAN_ELEMENT_THEORY":"SGP4","MEAN_MOTION_DDOT":"0.0000000000000","SITE":"AFETR","INCLINATION":"53.0546","RA_OF_ASC_NODE":"271.0871"},{"RA_OF_ASC_NODE":"270.1261","INCLINATION":"53.0553","MEAN_MOTION_DDOT":"0.0000000000000","MEAN_ELEMENT_THEORY":"SGP4","TLE_LINE2":"2 46069  53.0553 270.1261 0001542  71.6238 288.4918 15.06403136 97472","DECAY_DATE":null,"OBJECT_NAME":"STARLINK-1533","SITE":"AFETR","APOAPSIS":"548.272","LAUNCH_DATE":"2020-08-07","MEAN_MOTION":"15.06403136","PERIAPSIS":"546.136","GP_ID":"202934247","CLASSIFICATION_TYPE":"U","REF_FRAME":"TEME","ELEMENT_SET_NO":"999","NORAD_CAT_ID":"46069","SEMIMAJOR_AXIS":"6925.339","TLE_LINE1":"1 46069U 20055AU  22127.75885787  .00004116  00000-0  29501-3 0  9998","BSTAR":"0.00029501000000","EPHEMERIS_TYPE":"0","RCS_SIZE":"LARGE","REV_AT_EPOCH":"9747","OBJECT_TYPE":"PAYLOAD","ARG_OF_PERICENTER":"71.6238","PERIOD":"95.592","TIME_SYSTEM":"UTC","EPOCH":"2022-05-07T18:12:45.319968","OBJECT_ID":"2020-055AU","FILE":"3434205","CENTER_NAME":"EARTH","MEAN_ANOMALY":"288.4918","ECCENTRICITY":"0.00015420","COUNTRY_CODE":"US","MEAN_MOTION_DOT":"0.00004116"},{"CLASSIFICATION_TYPE":"U","REF_FRAME":"TEME","GP_ID":"202934065","NORAD_CAT_ID":"46070","ELEMENT_SET_NO":"999","MEAN_MOTION":"15.06400858","LAUNCH_DATE":"2020-08-07","APOAPSIS":"548.116","PERIAPSIS":"546.306","OBJECT_NAME":"STARLINK-1536","DECAY_DATE":null,"TLE_LINE2":"2 46070  53.0569 270.0616 0001307  73.0915 287.0217 15.06400858 97476","MEAN_ELEMENT_THEORY":"SGP4","MEAN_MOTION_DDOT":"0.0000000000000","SITE":"AFETR","INCLINATION":"53.0569","RA_OF_ASC_NODE":"270.0616","CENTER_NAME":"EARTH","OBJECT_ID":"2020-055AV","FILE":"3434206","MEAN_MOTION_DOT":"0.00000975","COUNTRY_CODE":"US","ECCENTRICITY":"0.00013070","MEAN_ANOMALY":"287.0217","PERIOD":"95.592","TIME_SYSTEM":"UTC","EPOCH":"2022-05-07T18:33:58.915584","REV_AT_EPOCH":"9747","RCS_SIZE":"LARGE","ARG_OF_PERICENTER":"73.0915","OBJECT_TYPE":"PAYLOAD","EPHEMERIS_TYPE":"0","BSTAR":"0.00008435000000","TLE_LINE1":"1 46070U 20055AV  22127.77359856  .00000975  00000-0  84350-4 0  9998","SEMIMAJOR_AXIS":"6925.346"},{"OBJECT_TYPE":"PAYLOAD","ARG_OF_PERICENTER":"59.8039","RCS_SIZE":"LARGE","REV_AT_EPOCH":"9797","SEMIMAJOR_AXIS":"6925.351","TLE_LINE1":"1 46071U 20055AW  22127.52664301  .00001542  00000-0  12241-3 0  9996","BSTAR":"0.00012241000000","EPHEMERIS_TYPE":"0","MEAN_ANOMALY":"300.3105","ECCENTRICITY":"0.00015670","COUNTRY_CODE":"US","MEAN_MOTION_DOT":"0.00001542","OBJECT_ID":"2020-055AW","FILE":"3433971","CENTER_NAME":"EARTH","EPOCH":"2022-05-07T12:38:21.956064","TIME_SYSTEM":"UTC","PERIOD":"95.592","SITE":"AFETR","MEAN_MOTION_DDOT":"0.0000000000000","MEAN_ELEMENT_THEORY":"SGP4","TLE_LINE2":"2 46071  53.0544 271.1595 0001567  59.8039 300.3105 15.06399129 97973","OBJECT_NAME":"STARLINK-1538","DECAY_DATE":null,"RA_OF_ASC_NODE":"271.1595","INCLINATION":"53.0544","ELEMENT_SET_NO":"999","NORAD_CAT_ID":"46071","GP_ID":"202923942","REF_FRAME":"TEME","CLASSIFICATION_TYPE":"U","PERIAPSIS":"546.131","APOAPSIS":"548.301","LAUNCH_DATE":"2020-08-07","MEAN_MOTION":"15.06399129"}];
